[{"OBJECT_NAME":"STARLINK-5878","OBJECT_ID":"2023-037AT","EPOCH":"2026-03-09T23:11:06.774432","MEAN_MOTION":14.98332254,"ECCENTRICITY":0.00025462,"INCLINATION":69.9981,"RA_OF_ASC_NODE":263.7959,"ARG_OF_PERICENTER":271.1445,"MEAN_ANOMALY":88.9423,"EPHEMERIS_TYPE":0,"CLASSIFICATION_TYPE":"U","NORAD_CAT_ID":55955,"ELEMENT_SET_NO":999,"REV_AT_EPOCH":16451,"BSTAR":-8.99554e-7,"MEAN_MOTION_DOT":-1.04e-6,"MEAN_MOTION_DDOT":0},{"OBJECT_NAME":"PEGASUS DEB","OBJECT_ID":"1994-029AFH","EPOCH":"2026-03-05T17:45:37.026432","MEAN_MOTION":14.51722311,"ECCENTRICITY":0.02342531,"INCLINATION":81.9261,"RA_OF_ASC_NODE":220.9081,"ARG_OF_PERICENTER":300.5844,"MEAN_ANOMALY":57.2427,"EPHEMERIS_TYPE":0,"CLASSIFICATION_TYPE":"U","NORAD_CAT_ID":39322,"ELEMENT_SET_NO":999,"REV_AT_EPOCH":66781,"BSTAR":0.00070242434,"MEAN_MOTION_DOT":4.058e-5,"MEAN_MOTION_DDOT":0}]
